STARLINK-32691          
1 62501U 25003Q   26068.96206829  .00035087  00000+0  12776-2 0  9995
2 62501  43.0004 287.3890 0000589   6.0113 354.0745 15.27604405 66708
TEVEL2-5                
1 63214U 25052E   26068.96660006  .00021339  00000+0  71765-3 0  9991
2 63214  97.4013 325.3677 0004700  95.3936 264.7842 15.30817434 54919
